STARLINK-2022           
1 47643U 21012Z   24212.18421444  .00000344  00000+0  41982-4 0  9997
2 47643  53.0561 169.0333 0001548  94.3547 265.7619 15.06395000191197
